STARLINK-1007           
1 44713C 19074A   21304.03263325  .00007189  00000-0  48156-3 0  3046
2 44713  53.0502 127.3970 0001911  80.3127 136.6180 15.06397659    15
STARLINK-1008           
1 44714C 19074B   21304.08072326  .00006364  00000-0  42635-3 0  3041
2 44714  53.0525 127.1453 0001689  88.7178 144.0357 15.06396425    14
STARLINK-1009           
1 44715C 19074C   21304.08302138  .00005135  00000-0  34416-3 0  3042
2 44715  53.0522 127.1323 0002016  82.2879 222.9236 15.06381698    18
STARLINK-1010           
1 44716C 19074D   21304.08854333 -.00017432  00000-0 -11681-2 0  3045
2 44716  53.0540 127.1004 0001957  78.2526 156.9576 15.06411324    15
STARLINK-1011           
1 44717C 19074E   21304.08297644  .00009758  00000-0  65373-3 0  3040
2 44717  53.0523 147.1272 0001840  77.3049 137.6902 15.06393834    11
STARLINK-1012           
1 44718C 19074F   21304.07173986  .00005555  00000-0  37229-3 0  3042
2 44718  53.0526 127.1831 0001933  80.2350 223.8127 15.06381976    16
STARLINK-1013           
1 44719C 19074G   21304.07921379  .00005177  00000-0  34694-3 0  3043
2 44719  53.0532 127.1375 0001912  85.4851 219.0845 15.06387653    19
STARLINK-1014           
1 44720C 19074H   21304.08804656 -.00009713  00000-0 -65092-3 0  3042
2 44720  53.0514 127.1128 0002118  81.1767 171.3587 15.06399782    14
STARLINK-1015           
1 44721C 19074J   21304.08666129  .00005291  00000-0  35452-3 0  3046
2 44721  53.0512 127.1062 0001923  79.7042 225.2656 15.06393793    14
STARLINK-1016           
1 44722C 19074K   21304.07685792  .00006165  00000-0  41318-3 0  3042
2 44722  53.0520 127.1580 0001846  81.1869 150.5865 15.06383927    17
STARLINK-1017           
1 44723C 19074L   21304.02204304 -.00045917  00000-0 -30776-2 0  3049
2 44723  53.0533 127.4075 0001839  79.1504 135.2025 15.06429906    15
STARLINK-1019           
1 44724C 19074M   21304.06828803  .00005787  00000-0  38773-3 0  3045
2 44724  53.0529 127.1995 0001691  85.7947 219.4747 15.06391014    13
STARLINK-1020           
1 44725C 19074N   21304.05696839  .00009129  00000-0  61174-3 0  3042
2 44725  53.0518 147.2450 0001664  87.0317 126.8468 15.06383555    19
STARLINK-1021           
1 44726C 19074P   21304.04983901 -.00024511  00000-0 -16429-2 0  3047
2 44726  53.0528 127.2900 0001547  88.8532 136.3263 15.06408955    18
STARLINK-1022           
1 44727C 19074Q   21304.08299816  .00010630  00000-0  71239-3 0  3043
2 44727  53.0609 167.0642 0001937  71.5909 133.5447 15.06377610    10
STARLINK-1023           
1 44728C 19074R   21304.03493528  .01176249  00000-0  78409-2 0  3040
2 44728  53.0520  93.6218 0001554  31.2006 353.6778 15.73525561    18
STARLINK-1024           
1 44729C 19074S   21304.08351757  .00006444  00000-0  41338-3 0  3043
2 44729  53.0002 144.0617 0001803  66.6379 152.5636 15.07992199    11
STARLINK-1026           
1 44731C 19074U   21304.07558926  .00005256  00000-0  35214-3 0  3048
2 44731  53.0512 127.1697 0001746  81.3445 223.5521 15.06392816    15
STARLINK-1027           
1 44732C 19074V   21304.08395662  .00008038  00000-0  53856-3 0  3049
2 44732  53.0517 147.1347 0001916  82.9862 337.1992 15.06387804    19
STARLINK-1028           
1 44733C 19074W   21304.04564890  .00001348  00000-0  90352-4 0  3047
2 44733  53.0535 127.3027 0001684  83.9610 138.5290 15.06386612    19
STARLINK-1029           
1 44734C 19074X   21304.06806735  .00009178  00000-0  62852-3 0  3049
2 44734  53.0000  47.2016 0001351  84.0034 205.5713 15.05576153    13
STARLINK-1030           
1 44735C 19074Y   21304.05330955  .00008966  00000-0  60104-3 0  3047
2 44735  53.0530 147.2752 0001712  74.5613 139.3755 15.06371748    12
STARLINK-1031           
1 44736C 19074Z   21304.06804875  .00009944  00000-0  66622-3 0  3044
2 44736  53.0525 147.2060 0001756  76.7128 137.2774 15.06389209    11
STARLINK-1032           
1 44737C 19074AA  21304.07918506 -.00011318  00000-0 -75842-3 0  3047
2 44737  53.0527 147.1580 0001822  77.1482 137.2926 15.06404625    11
STARLINK-1033           
1 44738C 19074BA  21304.06440035  .00019114  00000-0  12807-2 0  3045
2 44738  53.0512 147.2088 0001977  81.7670 132.3833 15.06379266    16
STARLINK-1035           
1 44740C 19074AD  21304.07551701  .00010122  00000-0  67842-3 0  3042
2 44740  53.0527 147.1634 0002048  83.3813 131.1651 15.06376334    16
STARLINK-1036           
1 44741C 19074AE  21304.08696879  .00009439  00000-0  63239-3 0  3045
2 44741  53.0525 147.1157 0001762  82.2477 134.4142 15.06391244    19
STARLINK-1038           
1 44743C 19074AG  21304.05988668  .00038968  00000-0  26133-2 0  3044
2 44743  53.0514 167.2402 0001592  73.5381  86.2379 15.06325303    12
STARLINK-1039           
1 44744C 19074AH  21304.07084637  .00040695  00000-0  27295-2 0  3040
2 44744  53.0529 167.1898 0001638  67.6674  91.5925 15.06318412    16
STARLINK-1041           
1 44746C 19074AK  21304.05623978  .00002452  00000-0  16424-3 0  3049
2 44746  53.0525 167.2394 0001826  73.4599  86.5016 15.06398913    15
STARLINK-1042           
1 44747C 19074AL  21304.07723808  .00010910  00000-0  73110-3 0  3048
2 44747  53.0516 167.1624 0001642  78.3068  35.5683 15.06381951    10
STARLINK-1043           
1 44748C 19074AM  21304.04768388  .00007385  00000-0  49480-3 0  3043
2 44748  53.0524 167.2875 0001820  73.7157  79.8338 15.06388668    15
STARLINK-1046           
1 44751C 19074AQ  21304.06354428 -.00007279  00000-0 -48757-3 0  3045
2 44751  53.0541 167.2275 0001987  72.6037  86.9494 15.06417342    15
STARLINK-1047           
1 44752C 19074AR  21304.06462656  .00006501  00000-0  43549-3 0  3048
2 44752  53.0523 147.2074 0001712  70.7196 344.7494 15.06397501    11
STARLINK-1048           
1 44753C 19074AS  21304.03367097 -.00034311  00000-0 -23002-2 0  3042
2 44753  53.0527 127.3650 0001637  81.6277 135.8418 15.06411872    15
STARLINK-1049           
1 44754C 19074AT  21304.03767204  .00067077  00000-0  44949-2 0  3043
2 44754  53.0530 127.3388 0001670  77.9246 141.2304 15.06326007    19
STARLINK-1050           
1 44755C 19074AU  21304.07744397  .00054298  00000-0  36429-2 0  3041
2 44755  53.0516 167.1913 0001601  67.9639  92.2550 15.06294911    15
STARLINK-1051           
1 44756C 19074AV  21303.97186306  .01203018  00000-0  97097-2 0  3034
2 44756  53.0502  60.2335 0004201   0.6306  21.6324 15.68992171    12
STARLINK-1034           
1 44757C 19074AW  21304.03870595 -.00000782  00000-0 -52360-4 0  3044
2 44757  53.0545 147.3180 0001735  71.9048 142.9079 15.06401583    16
STARLINK-1053           
1 44758C 19074AX  21304.03533866  .00006183  00000-0  41421-3 0  3046
2 44758  53.0517 167.3345 0001577  80.5549  71.1213 15.06396548    14
STARLINK-1054           
1 44759C 19074AY  21304.07206432  .00010666  00000-0  71475-3 0  3040
2 44759  53.0533 167.1905 0001724  72.8839 332.8758 15.06382314    10
STARLINK-1055           
1 44760C 19074AZ  21304.06945024 -.00006086  00000-0 -40782-3 0  3048
2 44760  53.0516 167.1970 0001817  74.6786  36.9569 15.06399440    19
STARLINK-1056           
1 44761C 19074BA  21304.06826463  .00003114  00000-0  20864-3 0  3040
2 44761  53.0527 167.2010 0001867  76.2566 328.9515 15.06398186    18
STARLINK-1057           
1 44762C 19074BB  21304.07168689 -.00003781  00000-0 -25331-3 0  3047
2 44762  53.0518 147.1849 0002006  74.6586 339.0776 15.06408544    18
STARLINK-1058           
1 44763C 19074BC  21304.04427270  .00034757  00000-0  23307-2 0  3044
2 44763  53.0531 167.3128 0001545  77.1826  77.8610 15.06332612    16
STARLINK-1059           
1 44764C 19074BD  21304.06831186  .00008908  00000-0  59700-3 0  3048
2 44764  53.0531 147.2024 0001870  91.2926 324.1712 15.06379239    15
STARLINK-1060           
1 44765C 19074BE  21304.04791161 -.00016629  00000-0 -11143-2 0  3044
2 44765  53.0521 147.2857 0001898  82.3113 122.4374 15.06410566    10
STARLINK-1061           
1 44766C 19074BF  21304.03630157  .00010522  00000-0  70492-3 0  3048
2 44766  53.0516 167.3353 0002014  80.9311  70.7829 15.06390838    13
STARLINK-1062           
1 44767C 19074BG  21304.07573424  .00010719  00000-0  71807-3 0  3045
2 44767  53.0521 167.1627 0001670  86.5003 319.1817 15.06392028    19
STARLINK-1063           
1 44768C 19074BH  21304.05114028  .00012146  00000-0  81378-3 0  3045
2 44768  53.0518 167.2795 0001814  76.9956  75.2640 15.06386900    19
STARLINK-1064           
1 44769C 19074BJ  21304.01475802  .00059215  00000-0  79541-3 0  3049
2 44769  53.0555 145.8509 0001592  38.7662 120.1118 15.57226499    11
STARLINK-1067           
1 44771C 19074BL  21304.03123083  .00010577  00000-0  70881-3 0  3041
2 44771  53.0521 167.3662 0001671  79.9767  24.2652 15.06379499    17
STARLINK-1068           
1 44772C 19074BM  21304.04235978  .00008978  00000-0  60155-3 0  3045
2 44772  53.0531 147.3172 0001786  75.7710 138.8084 15.06390006    10
STARLINK-1073           
1 44914C 20001A   21304.07344526  .00001035  00000-0  69363-4 0  3046
2 44914  53.0518 287.1826 0001678  67.9111 225.4357 15.06383122    17
STARLINK-1084           
1 44915C 20001B   21304.06856705 -.00012145  00000-0 -81363-3 0  3042
2 44915  53.0521 287.2055 0001595  77.7279  29.1023 15.06413709    13
STARLINK-1097           
1 44916C 20001C   21304.07814017 -.00018995  00000-0 -14536-3 0  3041
2 44916  53.0514 246.1180 0002949  18.5020 288.3722 15.71479694    12
STARLINK-1098           
1 44917C 20001D   21304.07255039 -.00006673  00000-0 -44704-3 0  3045
2 44917  53.0526 287.1898 0001637  79.3895  29.0565 15.06410465    19
STARLINK-1099           
1 44918C 20001E   21304.07085226 -.00004991  00000-0 -33457-3 0  3049
2 44918  53.0534 287.1971 0001711  74.9255 324.3457 15.06388540    14
STARLINK-1101           
1 44919C 20001F   21304.05993190  .01266375  00000-0  84166-2 0  3043
2 44919  53.0525 249.4646 0003400 299.7590   1.6765 15.73498678    16
STARLINK-1102           
1 44920C 20001G   21304.06528001  .00002999  00000-0  20098-3 0  3045
2 44920  53.0525 287.2143 0001628  71.2900 217.7048 15.06393936    19
STARLINK-1103           
1 44921C 20001H   21304.07190264  .00003753  00000-0  25699-3 0  3044
